GLOBALSTAR M057         
1 25943U 99058A   25005.47169590 -.00000048  00000+0  40868-3 0  9998
2 25943  51.9991  89.9839 0002667  61.8427 298.2692 12.24806502146991
GLOBALSTAR M059         
1 25944U 99058B   25005.52041341 -.00000096  00000+0 -12669-3 0  9990
2 25944  52.0029 287.2387 0000973  39.1184 131.5030 11.99972544554510
GLOBALSTAR M056         
1 25945U 99058C   25005.80499024 -.00000113  00000+0 -29639-3 0  9992
2 25945  51.9974 292.5950 0000218 218.5574 173.1563 12.04775798143090
GLOBALSTAR M031         
1 25946U 99058D   25005.57368906  .00000046  00000+0  13848-2 0  9998
2 25946  51.9928 195.2934 0001351 152.5387 242.5217 12.16026964144768
GLOBALSTAR M039         
1 25961U 99062A   25005.76566085 -.00000057  00000+0  26329-3 0  9991
2 25961  51.9860  43.4172 0002389 354.6002   5.4839 12.62314911159731
GLOBALSTAR M034         
1 25962U 99062B   25005.59715622  .00000010  00000+0  14392-2 0  9990
2 25962  51.9883  74.0269 0014514  95.9608  73.1148 11.79439899119207
GLOBALSTAR M029         
1 25963U 99062C   25005.48258787 -.00000075  00000+0  13400-3 0  9995
2 25963  51.9770 175.5150 0003369 138.9231 236.0757 11.99890073149593
GLOBALSTAR M061         
1 25964U 99062D   25005.79516010 -.00000054  00000+0  43393-3 0  9997
2 25964  51.9780 255.3945 0006827  26.0526   8.6035 11.76770069102352
